[Satellite]
VERSION=1.1
NAME=QUIKSCAT
NICKNAME=QUIKSCAT
TLE1=1 25789U 99034A   17186.12995568 -.00000007  00000-0  15003-4 0  9995
TLE2=2 25789  98.6060  14.4634 0001254  46.7348 313.3938 14.27279797939756
